GLOBALSTAR M094 [+]     
1 39074U 13005C   24077.12653424 -.00000093  00000+0  58717-4 0  9993
2 39074  51.9947 133.7323 0000356  86.2727 273.8180 12.62263771514677
GLOBALSTAR M096 [+]     
1 39075U 13005D   24076.58535979 -.00000082  00000+0  11951-3 0  9993
2 39075  52.0066 183.5356 0000508  84.6649 275.4276 12.62273469513505
GLOBALSTAR M078 [+]     
1 39076U 13005E   24076.71784958 -.00000088  00000+0  86298-4 0  9995
2 39076  51.9855 268.2696 0000434 202.7660 157.3188 12.62261298512148
GLOBALSTAR M095 [+]     
1 39077U 13005F   24076.90208678 -.00000085  00000+0  10537-3 0  9996
2 39077  51.9781 265.1282 0000242  62.3335 297.7556 12.62264635512023
GLOBALSTAR M087 [+]     
1 52888U 22064A   24077.19954373 -.00000089  00000+0  75374-4 0  9993
2 52888  51.9751 169.1365 0010041 129.7291 230.4496 13.37567524 85216
